OBJECT_NAME,OBJECT_ID,EPOCH,MEAN_MOTION,ECCENTRICITY,INCLINATION,RA_OF_ASC_NODE,ARG_OF_PERICENTER,MEAN_ANOMALY,EPHEMERIS_TYPE,CLASSIFICATION_TYPE,NORAD_CAT_ID,ELEMENT_SET_NO,REV_AT_EPOCH,BSTAR,MEAN_MOTION_DOT,MEAN_MOTION_DDOT
STARLINK-3855,2022-049Z,2026-03-21T07:21:46.242144,16.18070688,.0004047,53.2083,336.1061,231.0500,129.0179,0,U,52474,999,21443,.12654E-2,.1989498E-1,.45088E-2
NUSAT-31 (RUBY PAYNE-S),2022-057W,2026-03-21T06:11:44.051136,16.02020979,.00064687,97.6399,251.3067,279.9884,80.0664,0,U,52752,999,21381,.13361518E-2,.758643E-2,.27708181E-3
STARLINK-4038,2022-083U,2026-03-21T04:32:05.773344,16.06110070,.00093986,53.1989,60.9252,53.8780,306.3123,0,U,53150,999,20381,.10496715E-2,.792551E-2,.33306648E-3
STARLINK-4404,2022-084G,2026-03-21T05:08:02.889312,16.02496231,.00013,97.6110,167.6592,1.4384,358.6899,0,U,53195,999,20331,.51035631E-3,.297853E-2,.40607631E-4
STARLINK-4407,2022-084H,2026-03-21T05:43:34.665888,16.03952930,.00029518,97.6052,168.2262,295.2116,64.8857,0,U,53196,999,20333,.4568756E-3,.290701E-2,.39537526E-4
STARLINK-4057,2022-086AD,2026-03-21T03:46:21.692064,16.10960865,.00032957,53.2109,114.6618,17.0869,343.0278,0,U,53269,999,20318,.84094227E-3,.861833E-2,.43549473E-3
STARLINK-4361,2022-099AE,2026-03-21T07:12:05.487264,16.04971863,.00029876,97.6495,221.7938,105.2265,254.9346,0,U,53493,999,19892,.44030177E-3,.297841E-2,.42074919E-4
STARLINK-4465,2022-099AH,2026-03-21T06:00:02.999808,15.93761189,.00029559,97.6406,228.4356,338.4409,178.6669,0,U,53496,999,594,.10920989E-2,.39321E-2,.62570949E-4
STARLINK-4461,2022-099AQ,2026-03-20T21:20:32.288640,16.03399815,.00002656,97.6372,228.7563,81.2341,278.8968,0,U,53503,999,19934,.11249555E-2,.691162E-2,.23151394E-3
STARLINK-4469,2022-105K,2026-03-21T06:46:08.918688,16.00553710,.00041167,97.6278,347.4455,169.6791,190.4572,0,U,53657,999,19654,.11638269E-2,.607278E-2,.16798798E-3
STARLINK-5024,2022-119R,2026-03-21T06:41:24.383616,15.94503167,.00087094,53.1998,183.7622,357.5628,2.5357,0,U,53901,999,19468,.19781663E-2,.764483E-2,.25920654E-3
STARLINK-5092,2023-014T,2026-03-21T02:08:43.893888,16.18432286,.00053787,69.9985,17.7899,221.4097,138.6717,0,U,55408,999,17420,.78330463E-3,.1332193E-1,.4175116E-5
OBJECT AF,2023-085AF,2026-03-21T03:51:43.980480,16.04218876,.00143954,97.4778,212.0338,287.7003,72.2705,0,U,57033,999,15461,.19069944E-2,.1234135E-1,.86795369E-3
QIANKUN-1,2023-103B,2026-03-19T15:55:29.232192,16.07679990,.00463814,96.1906,129.5554,154.4560,205.9032,0,U,57422,999,15291,.17409016E-4,.15727E-3,.166737E-5
OBJECT B,2023-104B,2026-03-21T05:24:43.377984,16.07939668,.00093251,97.2696,170.0709,288.3872,71.6397,0,U,57425,999,14992,.95283727E-3,.775702E-2,.32162705E-3
INTUITION-1,2023-174CW,2026-03-20T21:10:23.799360,16.15163977,.0007385,97.3584,177.5008,276.1042,83.9402,0,U,58565,999,13267,.12745891E-2,.1615254E-1,.22334108E-2
STARLINK-31299,2024-041G,2026-03-21T13:23:31.149888,16.00100985,.0020657,42.9771,117.1840,84.2413,276.0819,0,U,59080,999,11757,.23818E-2,.1292043E-1,.88233E-3
SENTRY,2024-043AU,2026-03-20T22:45:51.224256,16.10464267,.00064431,97.5258,235.7314,290.5063,69.5529,0,U,59140,999,11486,.12613268E-2,.1191404E-1,.90737491E-3
STARLINK-31867,2024-120E,2026-03-21T06:00:02.999808,15.95774215,.00116224,53.1357,244.2708,267.2569,318.4963,0,U,60139,999,585,.15607471E-2,.648239E-2,.18822693E-3
STARLINK-11331 [DTC],2024-184F,2026-03-21T06:00:02.999808,15.94257328,.00128192,53.1474,176.0729,356.7065,92.4390,0,U,61537,999,603,.13322408E-2,.510345E-2,.11569975E-3
STARLINK-11687 [DTC],2025-075H,2026-03-21T06:00:02.999808,15.97243238,.00104924,42.9884,79.9276,135.9312,201.3694,0,U,63555,999,587,.13489193E-2,.616032E-2,.16883883E-3
COSMOS 2591,2025-182A,2026-03-20T23:19:37.106400,15.96417784,.00107466,96.5888,12.9779,125.8407,234.3871,0,U,65267,999,3362,.28254116E-3,.117537E-2,.7131806E-5
COSMOS 2592,2025-182B,2026-03-19T08:35:15.050976,15.96376735,.00090527,96.5913,11.3505,127.1060,233.1047,0,U,65268,999,3336,.13906957E-4,.5207E-4,.1860522E-5
COSMOS 2593,2025-182C,2026-03-20T21:04:14.733984,15.96430237,.00087118,96.5904,12.8133,123.4221,236.7891,0,U,65269,999,3360,.36552085E-4,.14677E-3,.1934342E-5
COSMOS 2594,2025-182D,2026-03-19T15:21:28.510848,15.96414326,.00087938,96.5898,11.5786,121.4080,238.8060,0,U,65270,999,3342,.93104E-7,-.545E-5,.1847244E-5
STARLINK-34411,2025-192L,2026-03-21T06:00:02.999808,15.95101204,.00130213,53.1346,161.1197,342.7125,82.3056,0,U,65414,999,567,.13399641E-2,.537396E-2,.12902658E-3
STARLINK-36604,2026-049A,2026-03-19T13:52:52.185792,16.01563866,.00005554,97.2797,98.1391,65.4234,294.7104,0,U,68142,999,96,-.10855232E-2,-.601426E-2,.12953804E-3
